[{"OBJECT_NAME":"IRIDIUM 134","OBJECT_ID":"2017-083F","EPOCH":"2026-03-09T21:58:07.186944","MEAN_MOTION":14.34217743,"ECCENTRICITY":0.00020775,"INCLINATION":86.4026,"RA_OF_ASC_NODE":3.549,"ARG_OF_PERICENTER":86.3687,"MEAN_ANOMALY":273.7747,"EPHEMERIS_TYPE":0,"CLASSIFICATION_TYPE":"U","NORAD_CAT_ID":43075,"ELEMENT_SET_NO":999,"REV_AT_EPOCH":42987,"BSTAR":2.4162884e-5,"MEAN_MOTION_DOT":8.7e-7,"MEAN_MOTION_DDOT":0},{"OBJECT_NAME":"FENGYUN 1C DEB","OBJECT_ID":"1999-025BXC","EPOCH":"2026-03-08T05:22:00.882048","MEAN_MOTION":14.33651903,"ECCENTRICITY":0.00285553,"INCLINATION":98.8563,"RA_OF_ASC_NODE":170.8973,"ARG_OF_PERICENTER":228.23,"MEAN_ANOMALY":131.6443,"EPHEMERIS_TYPE":0,"CLASSIFICATION_TYPE":"U","NORAD_CAT_ID":31513,"ELEMENT_SET_NO":999,"REV_AT_EPOCH":74093,"BSTAR":0.003300855,"MEAN_MOTION_DOT":9.159e-5,"MEAN_MOTION_DDOT":0}]
